KUIPER-00117            
1 65949U 25228C   26204.50044833  .00000570  00000+0  10382-3 0  9991
2 65949  51.8980 117.5163 0000471 100.0842 260.0173 14.79910885 43375
KUIPER-00121            
1 65950U 25228D   26204.80978525  .00003567  00000+0  49630-3 0  9997
2 65950  51.8989 111.1637 0000906 103.3253 256.7811 14.79964138 43491
KUIPER-00122            
1 65951U 25228E   26204.73147005  .00002836  00000+0  40066-3 0  9993
2 65951  51.8990 121.4823 0000861  85.3056 274.8005 14.79958939 43347
KUIPER-00123            
1 65952U 25228F   26204.76525595  .00003712  00000+0  51570-3 0  9997
2 65952  51.8981 121.3444 0000964  87.3965 272.7107 14.79929092 43349
KUIPER-00124            
1 65953U 25228G   26204.77333299  .00003451  00000+0  48145-3 0  9991
2 65953  51.8980 113.7979 0000764  82.5750 277.5299 14.79934139 43459
KUIPER-00125            
1 65954U 25228H   26204.11422080  .00003618  00000+0  50298-3 0  9994
2 65954  51.9006 101.7568 0000894  98.9912 261.1152 14.79962412 43560
KUIPER-00126            
1 65955U 25228J   26204.73416722 -.00001602  00000+0 -18122-3 0  9992
2 65955  51.8987 119.0015 0000976  88.1769 271.9305 14.79933096 43373
KUIPER-00127            
1 65956U 25228K   26204.45527118  .00004113  00000+0  56786-3 0  9990
2 65956  51.8996 112.7069 0001031  89.9548 270.1533 14.79960730 43447
KUIPER-00128            
1 65957U 25228L   26204.70849458 -.00003025  00000+0 -36799-3 0  9998
2 65957  51.9004 111.6524 0001290  94.9509 265.1601 14.79928897 43474
KUIPER-00129            
1 65958U 25228M   26204.13987953 -.00005525  00000+0 -69629-3 0  9994
2 65958  51.9004 109.1479 0000910  93.0762 267.0304 14.79935138 43461
KUIPER-00130            
1 65959U 25228N   26204.17096598  .00003912  00000+0  54148-3 0  9991
2 65959  51.9012 111.5455 0000756  94.1277 265.9772 14.79960515 33724
KUIPER-00134            
1 65960U 25228P   26204.49919907  .00040170  00000+0  93255-3 0  9995
2 65960  51.8724  20.6047 0005288  71.1258 289.0304 15.41963749 44723
KUIPER-00135            
1 65961U 25228Q   26204.47485382  .00000508  00000+0  95603-4 0  9990
2 65961  51.9017 110.2556 0000889  88.3155 271.7909 14.79952174 43479
KUIPER-00136            
1 65962U 25228R   26204.71390216 -.00003723  00000+0 -45959-3 0  9991
2 65962  51.9005 106.6524 0001212  91.2716 268.8386 14.79938341 43542
KUIPER-00137            
1 65963U 25228S   26204.10882561  .00004067  00000+0  56216-3 0  9992
2 65963  51.9032 106.8243 0001112  93.8248 266.2842 14.79932504 43498
KUIPER-00138            
1 65964U 25228T   26204.41541499  .00003749  00000+0  52049-3 0  9995
2 65964  51.8980 102.8924 0000823  98.2232 261.8824 14.79931310 43576
