{"fetched_at":"2026-07-24T07:06:06.293Z","source":"https://celestrak.org/NORAD/elements/gp.php?GROUP=kuiper&FORMAT=JSON","constellation":"kuiper","records":[{"OBJECT_NAME":"KUIPER-00117","OBJECT_ID":"2025-228C","EPOCH":"2026-07-23T12:00:38.735712","CLASSIFICATION_TYPE":"U","MEAN_MOTION":14.79910885,"ECCENTRICITY":0.0000471,"INCLINATION":51.898,"RA_OF_ASC_NODE":117.5163,"ARG_OF_PERICENTER":100.0842,"MEAN_ANOMALY":260.0173,"EPHEMERIS_TYPE":0,"NORAD_CAT_ID":65949,"ELEMENT_SET_NO":999,"REV_AT_EPOCH":4337,"BSTAR":0.00010382,"MEAN_MOTION_DOT":0.0000057,"MEAN_MOTION_DDOT":0},{"OBJECT_NAME":"KUIPER-00121","OBJECT_ID":"2025-228D","EPOCH":"2026-07-23T19:26:05.445600","CLASSIFICATION_TYPE":"U","MEAN_MOTION":14.79964138,"ECCENTRICITY":0.0000906,"INCLINATION":51.8989,"RA_OF_ASC_NODE":111.1637,"ARG_OF_PERICENTER":103.3253,"MEAN_ANOMALY":256.7811,"EPHEMERIS_TYPE":0,"NORAD_CAT_ID":65950,"ELEMENT_SET_NO":999,"REV_AT_EPOCH":4349,"BSTAR":0.0004963,"MEAN_MOTION_DOT":0.00003567,"MEAN_MOTION_DDOT":0},{"OBJECT_NAME":"KUIPER-00122","OBJECT_ID":"2025-228E","EPOCH":"2026-07-23T17:33:19.012320","CLASSIFICATION_TYPE":"U","MEAN_MOTION":14.79958939,"ECCENTRICITY":0.0000861,"INCLINATION":51.899,"RA_OF_ASC_NODE":121.4823,"ARG_OF_PERICENTER":85.3056,"MEAN_ANOMALY":274.8005,"EPHEMERIS_TYPE":0,"NORAD_CAT_ID":65951,"ELEMENT_SET_NO":999,"REV_AT_EPOCH":4334,"BSTAR":0.00040066,"MEAN_MOTION_DOT":0.00002836,"MEAN_MOTION_DDOT":0},{"OBJECT_NAME":"KUIPER-00123","OBJECT_ID":"2025-228F","EPOCH":"2026-07-23T18:21:58.114080","CLASSIFICATION_TYPE":"U","MEAN_MOTION":14.79929092,"ECCENTRICITY":0.0000964,"INCLINATION":51.8981,"RA_OF_ASC_NODE":121.3444,"ARG_OF_PERICENTER":87.3965,"MEAN_ANOMALY":272.7107,"EPHEMERIS_TYPE":0,"NORAD_CAT_ID":65952,"ELEMENT_SET_NO":999,"REV_AT_EPOCH":4334,"BSTAR":0.0005157,"MEAN_MOTION_DOT":0.00003712,"MEAN_MOTION_DDOT":0},{"OBJECT_NAME":"KUIPER-00124","OBJECT_ID":"2025-228G","EPOCH":"2026-07-23T18:33:35.970336","CLASSIFICATION_TYPE":"U","MEAN_MOTION":14.79934139,"ECCENTRICITY":0.0000764,"INCLINATION":51.898,"RA_OF_ASC_NODE":113.7979,"ARG_OF_PERICENTER":82.575,"MEAN_ANOMALY":277.5299,"EPHEMERIS_TYPE":0,"NORAD_CAT_ID":65953,"ELEMENT_SET_NO":999,"REV_AT_EPOCH":4345,"BSTAR":0.00048145,"MEAN_MOTION_DOT":0.00003451,"MEAN_MOTION_DDOT":0},{"OBJECT_NAME":"KUIPER-00125","OBJECT_ID":"2025-228H","EPOCH":"2026-07-23T02:44:28.677120","CLASSIFICATION_TYPE":"U","MEAN_MOTION":14.79962412,"ECCENTRICITY":0.00008941,"INCLINATION":51.9006,"RA_OF_ASC_NODE":101.7568,"ARG_OF_PERICENTER":98.9912,"MEAN_ANOMALY":261.1152,"EPHEMERIS_TYPE":0,"NORAD_CAT_ID":65954,"ELEMENT_SET_NO":999,"REV_AT_EPOCH":4356,"BSTAR":0.00050298165,"MEAN_MOTION_DOT":0.00003618,"MEAN_MOTION_DDOT":0},{"OBJECT_NAME":"KUIPER-00126","OBJECT_ID":"2025-228J","EPOCH":"2026-07-23T17:37:12.047808","CLASSIFICATION_TYPE":"U","MEAN_MOTION":14.79933096,"ECCENTRICITY":0.0000976,"INCLINATION":51.8987,"RA_OF_ASC_NODE":119.0015,"ARG_OF_PERICENTER":88.1769,"MEAN_ANOMALY":271.9305,"EPHEMERIS_TYPE":0,"NORAD_CAT_ID":65955,"ELEMENT_SET_NO":999,"REV_AT_EPOCH":4337,"BSTAR":-0.00018122,"MEAN_MOTION_DOT":-0.00001602,"MEAN_MOTION_DDOT":0},{"OBJECT_NAME":"KUIPER-00127","OBJECT_ID":"2025-228K","EPOCH":"2026-07-23T10:55:35.429952","CLASSIFICATION_TYPE":"U","MEAN_MOTION":14.7996073,"ECCENTRICITY":0.0001031,"INCLINATION":51.8996,"RA_OF_ASC_NODE":112.7069,"ARG_OF_PERICENTER":89.9548,"MEAN_ANOMALY":270.1533,"EPHEMERIS_TYPE":0,"NORAD_CAT_ID":65956,"ELEMENT_SET_NO":999,"REV_AT_EPOCH":4344,"BSTAR":0.00056786,"MEAN_MOTION_DOT":0.00004113,"MEAN_MOTION_DDOT":0},{"OBJECT_NAME":"KUIPER-00128","OBJECT_ID":"2025-228L","EPOCH":"2026-07-23T17:00:13.931712","CLASSIFICATION_TYPE":"U","MEAN_MOTION":14.79928897,"ECCENTRICITY":0.000129,"INCLINATION":51.9004,"RA_OF_ASC_NODE":111.6524,"ARG_OF_PERICENTER":94.9509,"MEAN_ANOMALY":265.1601,"EPHEMERIS_TYPE":0,"NORAD_CAT_ID":65957,"ELEMENT_SET_NO":999,"REV_AT_EPOCH":4347,"BSTAR":-0.00036799,"MEAN_MOTION_DOT":-0.00003025,"MEAN_MOTION_DDOT":0},{"OBJECT_NAME":"KUIPER-00129","OBJECT_ID":"2025-228M","EPOCH":"2026-07-23T03:21:25.591392","CLASSIFICATION_TYPE":"U","MEAN_MOTION":14.79935138,"ECCENTRICITY":0.00009101,"INCLINATION":51.9004,"RA_OF_ASC_NODE":109.1479,"ARG_OF_PERICENTER":93.0762,"MEAN_ANOMALY":267.0304,"EPHEMERIS_TYPE":0,"NORAD_CAT_ID":65958,"ELEMENT_SET_NO":999,"REV_AT_EPOCH":4346,"BSTAR":-0.00069628922,"MEAN_MOTION_DOT":-0.00005525,"MEAN_MOTION_DDOT":0},{"OBJECT_NAME":"KUIPER-00130","OBJECT_ID":"2025-228N","EPOCH":"2026-07-23T04:06:11.460672","CLASSIFICATION_TYPE":"U","MEAN_MOTION":14.79960515,"ECCENTRICITY":0.00007561,"INCLINATION":51.9012,"RA_OF_ASC_NODE":111.5455,"ARG_OF_PERICENTER":94.1277,"MEAN_ANOMALY":265.9772,"EPHEMERIS_TYPE":0,"NORAD_CAT_ID":65959,"ELEMENT_SET_NO":999,"REV_AT_EPOCH":3372,"BSTAR":0.00054147602,"MEAN_MOTION_DOT":0.00003912,"MEAN_MOTION_DDOT":0},{"OBJECT_NAME":"KUIPER-00134","OBJECT_ID":"2025-228P","EPOCH":"2026-07-23T11:58:50.799648","CLASSIFICATION_TYPE":"U","MEAN_MOTION":15.41963749,"ECCENTRICITY":0.0005288,"INCLINATION":51.8724,"RA_OF_ASC_NODE":20.6047,"ARG_OF_PERICENTER":71.1258,"MEAN_ANOMALY":289.0304,"EPHEMERIS_TYPE":0,"NORAD_CAT_ID":65960,"ELEMENT_SET_NO":999,"REV_AT_EPOCH":4472,"BSTAR":0.00093255,"MEAN_MOTION_DOT":0.0004017,"MEAN_MOTION_DDOT":0},{"OBJECT_NAME":"KUIPER-00135","OBJECT_ID":"2025-228Q","EPOCH":"2026-07-23T11:23:47.370048","CLASSIFICATION_TYPE":"U","MEAN_MOTION":14.79952174,"ECCENTRICITY":0.0000889,"INCLINATION":51.9017,"RA_OF_ASC_NODE":110.2556,"ARG_OF_PERICENTER":88.3155,"MEAN_ANOMALY":271.7909,"EPHEMERIS_TYPE":0,"NORAD_CAT_ID":65961,"ELEMENT_SET_NO":999,"REV_AT_EPOCH":4347,"BSTAR":0.000095603,"MEAN_MOTION_DOT":0.00000508,"MEAN_MOTION_DDOT":0},{"OBJECT_NAME":"KUIPER-00136","OBJECT_ID":"2025-228R","EPOCH":"2026-07-23T17:08:01.146624","CLASSIFICATION_TYPE":"U","MEAN_MOTION":14.79938341,"ECCENTRICITY":0.0001212,"INCLINATION":51.9005,"RA_OF_ASC_NODE":106.6524,"ARG_OF_PERICENTER":91.2716,"MEAN_ANOMALY":268.8386,"EPHEMERIS_TYPE":0,"NORAD_CAT_ID":65962,"ELEMENT_SET_NO":999,"REV_AT_EPOCH":4354,"BSTAR":-0.00045959,"MEAN_MOTION_DOT":-0.00003723,"MEAN_MOTION_DDOT":0},{"OBJECT_NAME":"KUIPER-00137","OBJECT_ID":"2025-228S","EPOCH":"2026-07-23T02:36:42.532704","CLASSIFICATION_TYPE":"U","MEAN_MOTION":14.79932504,"ECCENTRICITY":0.00011121,"INCLINATION":51.9032,"RA_OF_ASC_NODE":106.8243,"ARG_OF_PERICENTER":93.8248,"MEAN_ANOMALY":266.2842,"EPHEMERIS_TYPE":0,"NORAD_CAT_ID":65963,"ELEMENT_SET_NO":999,"REV_AT_EPOCH":4349,"BSTAR":0.00056216345,"MEAN_MOTION_DOT":0.00004067,"MEAN_MOTION_DDOT":0},{"OBJECT_NAME":"KUIPER-00138","OBJECT_ID":"2025-228T","EPOCH":"2026-07-23T09:58:11.855136","CLASSIFICATION_TYPE":"U","MEAN_MOTION":14.7993131,"ECCENTRICITY":0.0000823,"INCLINATION":51.898,"RA_OF_ASC_NODE":102.8924,"ARG_OF_PERICENTER":98.2232,"MEAN_ANOMALY":261.8824,"EPHEMERIS_TYPE":0,"NORAD_CAT_ID":65964,"ELEMENT_SET_NO":999,"REV_AT_EPOCH":4357,"BSTAR":0.00052049,"MEAN_MOTION_DOT":0.00003749,"MEAN_MOTION_DDOT":0}]}
